ONEWEB-0668             
1 56711U 23068B   25293.07811712  .00013227  00000+0  34463-1 0  9992
2 56711  87.8988 276.5958 0002204  80.0719 280.0660 13.16699701120182
ONEWEB-0676             
1 56712U 23068C   25293.13445552  .00000040  00000+0  72186-4 0  9991
2 56712  87.8979 276.5997 0001721  87.2324 272.9004 13.16596110120115
ONEWEB-0677             
1 56713U 23068D   25293.03771017  .00000140  00000+0  31311-3 0  9994
2 56713  87.9210 322.3260 0001763  90.3818 269.7517 13.20770814118106
ONEWEB-0678             
1 56714U 23068E   25293.12307316  .00000112  00000+0  26349-3 0  9996
2 56714  87.8972 307.0917 0001782 103.1972 256.9357 13.15548016117723
ONEWEB-0679             
1 56715U 23068F   25293.01742351  .00000031  00000+0  48503-4 0  9994
2 56715  87.8972 276.6099 0001857  70.4663 289.6668 13.16593912120124
ONEWEB-0680             
1 56716U 23068G   25293.13917221  .00000034  00000+0  50686-4 0  9996
2 56716  87.9167 291.8545 0002278  75.9551 284.1836 13.21881237119380
ONEWEB-0681             
1 56717U 23068H   25293.11834177  .00000129  00000+0  28006-3 0  9998
2 56717  87.9166 291.8769 0000896  69.2029 290.9201 13.21745492119370
ONEWEB-0682             
1 56718U 23068J   25293.14920922 -.00000054  00000+0 -17682-3 0  9993
2 56718  87.8966 307.1041 0002075  79.2850 280.8514 13.15547100117895
